[{"OBJECT_NAME":"STARLINK-33785","OBJECT_ID":"2025-071Z","EPOCH":"2026-03-09T11:26:15.011232","MEAN_MOTION":15.30190164,"ECCENTRICITY":0.00011574,"INCLINATION":53.1578,"RA_OF_ASC_NODE":141.1297,"ARG_OF_PERICENTER":97.0782,"MEAN_ANOMALY":263.0351,"EPHEMERIS_TYPE":0,"CLASSIFICATION_TYPE":"U","NORAD_CAT_ID":63516,"ELEMENT_SET_NO":999,"REV_AT_EPOCH":5271,"BSTAR":0.00048480911,"MEAN_MOTION_DOT":0.00014022,"MEAN_MOTION_DDOT":0},{"OBJECT_NAME":"OBJECT F","OBJECT_ID":"2021-022F","EPOCH":"2026-03-09T23:37:37.165152","MEAN_MOTION":15.31317672,"ECCENTRICITY":0.00120882,"INCLINATION":97.3982,"RA_OF_ASC_NODE":329.8375,"ARG_OF_PERICENTER":85.9268,"MEAN_ANOMALY":274.3355,"EPHEMERIS_TYPE":0,"CLASSIFICATION_TYPE":"U","NORAD_CAT_ID":47937,"ELEMENT_SET_NO":999,"REV_AT_EPOCH":27452,"BSTAR":0.00038690553,"MEAN_MOTION_DOT":0.00011656,"MEAN_MOTION_DDOT":0}]
